IRIDIUM 150             
1 43257U 18030J   25343.16846495  .00000112  00000+0  32777-4 0  9996
2 43257  86.3972   9.9018 0002312  97.0297 263.1162 14.34216106402923
IRIDIUM 143             
1 43258U 18030K   25343.14943742  .00000225  00000+0  73257-4 0  9991
2 43258  86.3973   9.9951 0002377  98.1467 261.9999 14.34216532402852
IRIDIUM 161             
1 43478U 18047C   25343.06382980  .00000189  00000+0  50151-4 0  9992
2 43478  86.4507 167.9153 0001935  83.4285 276.7136 14.43277857397715
IRIDIUM 152             
1 43479U 18047D   25343.05238617  .00000054  00000+0  12317-4 0  9992
2 43479  86.3983 167.7806 0001830  87.4304 272.7101 14.34218261395233
IRIDIUM 147             
1 43480U 18047E   25343.05872671 -.00000076  00000+0 -34295-4 0  9993
2 43480  86.3989 167.7798 0001953  85.7424 274.3995 14.34216797395232
IRIDIUM 110             
1 43481U 18047F   25342.99529774  .00000085  00000+0  23459-4 0  9997
2 43481  86.3986 167.8930 0001759  75.7419 284.3972 14.34218523395219
IRIDIUM 162             
1 43482U 18047G   25343.05752410  .00000096  00000+0  22606-4 0  9996
2 43482  86.4506 167.8114 0001688  94.0510 266.0884 14.43282784397705
IRIDIUM 160             
1 43569U 18061A   25342.94113983  .00000215  00000+0  69889-4 0  9998
2 43569  86.3973 136.3387 0001961  86.1992 273.9428 14.34217030386106
